CCSDS_OMM_VERS = 2.0
CREATION_DATE  = 
ORIGINATOR     = 

OBJECT_NAME    = SL-16 R/B
OBJECT_ID      = 1998-043G
CENTER_NAME    = EARTH
REF_FRAME      = TEME
TIME_SYSTEM    = UTC
MEAN_ELEMENT_THEORY = SGP/SGP4

EPOCH          = 2026-02-10T10:30:41.954112
MEAN_MOTION    = 14.26043197
ECCENTRICITY   = .00109469
INCLINATION    = 98.8207
RA_OF_ASC_NODE = 354.6163
ARG_OF_PERICENTER = 93.1431
MEAN_ANOMALY   = 267.1001

EPHEMERIS_TYPE = 0
CLASSIFICATION_TYPE = U
NORAD_CAT_ID   = 25400
ELEMENT_SET_NO = 999
REV_AT_EPOCH   = 43510
BSTAR          = .56260477E-4
MEAN_MOTION_DOT = .89E-6
MEAN_MOTION_DDOT = 0

CCSDS_OMM_VERS = 2.0
CREATION_DATE  = 
ORIGINATOR     = 

OBJECT_NAME    = SL-16 R/B
OBJECT_ID      = 1998-045B
CENTER_NAME    = EARTH
REF_FRAME      = TEME
TIME_SYSTEM    = UTC
MEAN_ELEMENT_THEORY = SGP/SGP4

EPOCH          = 2026-02-10T14:11:30.852384
MEAN_MOTION    = 14.16185527
ECCENTRICITY   = .00054549
INCLINATION    = 71.0082
RA_OF_ASC_NODE = 238.5605
ARG_OF_PERICENTER = 58.4573
MEAN_ANOMALY   = 301.7082

EPHEMERIS_TYPE = 0
CLASSIFICATION_TYPE = U
NORAD_CAT_ID   = 25407
ELEMENT_SET_NO = 999
REV_AT_EPOCH   = 42326
BSTAR          = .8276881E-4
MEAN_MOTION_DOT = .116E-5
MEAN_MOTION_DDOT = 0

CCSDS_OMM_VERS = 2.0
CREATION_DATE  = 
ORIGINATOR     = 

OBJECT_NAME    = ISS (ZARYA)
OBJECT_ID      = 1998-067A
CENTER_NAME    = EARTH
REF_FRAME      = TEME
TIME_SYSTEM    = UTC
MEAN_ELEMENT_THEORY = SGP/SGP4

EPOCH          = 2026-02-10T12:51:54.196416
MEAN_MOTION    = 15.48525084
ECCENTRICITY   = .0011092
INCLINATION    = 51.6312
RA_OF_ASC_NODE = 206.5863
ARG_OF_PERICENTER = 84.3744
MEAN_ANOMALY   = 275.8509

EPHEMERIS_TYPE = 0
CLASSIFICATION_TYPE = U
NORAD_CAT_ID   = 25544
ELEMENT_SET_NO = 999
REV_AT_EPOCH   = 55212
BSTAR          = .19515812E-3
MEAN_MOTION_DOT = .10157E-3
MEAN_MOTION_DDOT = 0

CCSDS_OMM_VERS = 2.0
CREATION_DATE  = 
ORIGINATOR     = 

OBJECT_NAME    = CZ-4B R/B
OBJECT_ID      = 1999-025C
CENTER_NAME    = EARTH
REF_FRAME      = TEME
TIME_SYSTEM    = UTC
MEAN_ELEMENT_THEORY = SGP/SGP4

EPOCH          = 2026-02-10T14:04:09.916032
MEAN_MOTION    = 14.18259823
ECCENTRICITY   = .00380371
INCLINATION    = 98.6681
RA_OF_ASC_NODE = 86.5028
ARG_OF_PERICENTER = 63.7845
MEAN_ANOMALY   = 55.6422

EPHEMERIS_TYPE = 0
CLASSIFICATION_TYPE = U
NORAD_CAT_ID   = 25732
ELEMENT_SET_NO = 999
REV_AT_EPOCH   = 38432
BSTAR          = .43556671E-4
MEAN_MOTION_DOT = .47E-6
MEAN_MOTION_DDOT = 0

CCSDS_OMM_VERS = 2.0
CREATION_DATE  = 
ORIGINATOR     = 

OBJECT_NAME    = OKEAN-O
OBJECT_ID      = 1999-039A
CENTER_NAME    = EARTH
REF_FRAME      = TEME
TIME_SYSTEM    = UTC
MEAN_ELEMENT_THEORY = SGP/SGP4

EPOCH          = 2026-02-10T03:23:04.899552
MEAN_MOTION    = 14.80289937
ECCENTRICITY   = .00018613
INCLINATION    = 97.9505
RA_OF_ASC_NODE = 101.3042
ARG_OF_PERICENTER = 85.0338
MEAN_ANOMALY   = 275.1086

EPHEMERIS_TYPE = 0
CLASSIFICATION_TYPE = U
NORAD_CAT_ID   = 25860
ELEMENT_SET_NO = 999
REV_AT_EPOCH   = 43031
BSTAR          = .10926989E-3
MEAN_MOTION_DOT = .78E-5
MEAN_MOTION_DDOT = 0

CCSDS_OMM_VERS = 2.0
CREATION_DATE  = 
ORIGINATOR     = 

OBJECT_NAME    = SL-16 R/B
OBJECT_ID      = 1999-039B
CENTER_NAME    = EARTH
REF_FRAME      = TEME
TIME_SYSTEM    = UTC
MEAN_ELEMENT_THEORY = SGP/SGP4

EPOCH          = 2026-02-10T03:31:34.932576
MEAN_MOTION    = 14.81692021
ECCENTRICITY   = .00145167
INCLINATION    = 98.0027
RA_OF_ASC_NODE = 100.2759
ARG_OF_PERICENTER = 352.1940
MEAN_ANOMALY   = 7.9044

EPHEMERIS_TYPE = 0
CLASSIFICATION_TYPE = U
NORAD_CAT_ID   = 25861
ELEMENT_SET_NO = 999
REV_AT_EPOCH   = 43278
BSTAR          = .88471381E-4
MEAN_MOTION_DOT = .643E-5
MEAN_MOTION_DDOT = 0

CCSDS_OMM_VERS = 2.0
CREATION_DATE  = 
ORIGINATOR     = 

OBJECT_NAME    = DELTA 2 R/B
OBJECT_ID      = 1999-041E
CENTER_NAME    = EARTH
REF_FRAME      = TEME
TIME_SYSTEM    = UTC
MEAN_ELEMENT_THEORY = SGP/SGP4

EPOCH          = 2026-02-10T07:52:02.875584
MEAN_MOTION    = 14.11727680
ECCENTRICITY   = .05022798
INCLINATION    = 51.7655
RA_OF_ASC_NODE = 50.5470
ARG_OF_PERICENTER = 267.5979
MEAN_ANOMALY   = 86.7383

EPHEMERIS_TYPE = 0
CLASSIFICATION_TYPE = U
NORAD_CAT_ID   = 25876
ELEMENT_SET_NO = 999
REV_AT_EPOCH   = 35916
BSTAR          = .38632752E-3
MEAN_MOTION_DOT = .2169E-4
MEAN_MOTION_DDOT = 0

CCSDS_OMM_VERS = 2.0
CREATION_DATE  = 
ORIGINATOR     = 

OBJECT_NAME    = HELIOS 1B
OBJECT_ID      = 1999-064A
CENTER_NAME    = EARTH
REF_FRAME      = TEME
TIME_SYSTEM    = UTC
MEAN_ELEMENT_THEORY = SGP/SGP4

EPOCH          = 2026-02-10T04:53:32.543232
MEAN_MOTION    = 14.87583285
ECCENTRICITY   = .0002109
INCLINATION    = 98.1721
RA_OF_ASC_NODE = 302.6360
ARG_OF_PERICENTER = 114.1883
MEAN_ANOMALY   = 245.9553

EPHEMERIS_TYPE = 0
CLASSIFICATION_TYPE = U
NORAD_CAT_ID   = 25977
ELEMENT_SET_NO = 999
REV_AT_EPOCH   = 68117
BSTAR          = .24429E-3
MEAN_MOTION_DOT = .2161E-4
MEAN_MOTION_DDOT = 0

CCSDS_OMM_VERS = 2.0
CREATION_DATE  = 
ORIGINATOR     = 

OBJECT_NAME    = TERRA
OBJECT_ID      = 1999-068A
CENTER_NAME    = EARTH
REF_FRAME      = TEME
TIME_SYSTEM    = UTC
MEAN_ELEMENT_THEORY = SGP/SGP4

EPOCH          = 2026-02-10T14:40:03.622656
MEAN_MOTION    = 14.60984820
ECCENTRICITY   = .00009452
INCLINATION    = 97.9653
RA_OF_ASC_NODE = 96.0723
ARG_OF_PERICENTER = 258.2564
MEAN_ANOMALY   = 251.4817

EPHEMERIS_TYPE = 0
CLASSIFICATION_TYPE = U
NORAD_CAT_ID   = 25994
ELEMENT_SET_NO = 999
REV_AT_EPOCH   = 39112
BSTAR          = .10736329E-3
MEAN_MOTION_DOT = .482E-5
MEAN_MOTION_DDOT = 0

CCSDS_OMM_VERS = 2.0
CREATION_DATE  = 
ORIGINATOR     = 

OBJECT_NAME    = SL-16 R/B
OBJECT_ID      = 2000-006B
CENTER_NAME    = EARTH
REF_FRAME      = TEME
TIME_SYSTEM    = UTC
MEAN_ELEMENT_THEORY = SGP/SGP4

EPOCH          = 2026-02-10T12:41:47.409216
MEAN_MOTION    = 14.15820381
ECCENTRICITY   = .00183219
INCLINATION    = 71.0031
RA_OF_ASC_NODE = 154.9456
ARG_OF_PERICENTER = 228.5551
MEAN_ANOMALY   = 131.3999

EPHEMERIS_TYPE = 0
CLASSIFICATION_TYPE = U
NORAD_CAT_ID   = 26070
ELEMENT_SET_NO = 999
REV_AT_EPOCH   = 34471
BSTAR          = -.61251605E-4
MEAN_MOTION_DOT = -.168E-5
MEAN_MOTION_DDOT = 0

CCSDS_OMM_VERS = 2.0
CREATION_DATE  = 
ORIGINATOR     = 

OBJECT_NAME    = TITAN 4B R/B
OBJECT_ID      = 2000-047B
CENTER_NAME    = EARTH
REF_FRAME      = TEME
TIME_SYSTEM    = UTC
MEAN_ELEMENT_THEORY = SGP/SGP4

EPOCH          = 2026-02-10T12:40:57.631584
MEAN_MOTION    = 15.09333301
ECCENTRICITY   = .00370466
INCLINATION    = 67.9891
RA_OF_ASC_NODE = 116.8741
ARG_OF_PERICENTER = 68.7282
MEAN_ANOMALY   = 291.7816

EPHEMERIS_TYPE = 0
CLASSIFICATION_TYPE = U
NORAD_CAT_ID   = 26474
ELEMENT_SET_NO = 999
REV_AT_EPOCH   = 38881
BSTAR          = .21204798E-3
MEAN_MOTION_DOT = .3309E-4
MEAN_MOTION_DDOT = 0

CCSDS_OMM_VERS = 2.0
CREATION_DATE  = 
ORIGINATOR     = 

OBJECT_NAME    = ENVISAT
OBJECT_ID      = 2002-009A
CENTER_NAME    = EARTH
REF_FRAME      = TEME
TIME_SYSTEM    = UTC
MEAN_ELEMENT_THEORY = SGP/SGP4

EPOCH          = 2026-02-10T12:06:31.644288
MEAN_MOTION    = 14.39026608
ECCENTRICITY   = .0001327
INCLINATION    = 98.3681
RA_OF_ASC_NODE = 355.7573
ARG_OF_PERICENTER = 89.6348
MEAN_ANOMALY   = 22.1463

EPHEMERIS_TYPE = 0
CLASSIFICATION_TYPE = U
NORAD_CAT_ID   = 27386
ELEMENT_SET_NO = 999
REV_AT_EPOCH   = 25526
BSTAR          = .62908166E-4
MEAN_MOTION_DOT = .151E-5
MEAN_MOTION_DDOT = 0

