SL-16 R/B               
1 25400U 98043G   26041.43798558  .00000089  00000+0  56260-4 0  9996
2 25400  98.8207 354.6163 0010946  93.1431 267.1001 14.26043197435103
SL-16 R/B               
1 25407U 98045B   26041.59132931  .00000116  00000+0  82769-4 0  9993
2 25407  71.0082 238.5605 0005454  58.4573 301.7082 14.16185527423265
ISS (ZARYA)             
1 25544U 98067A   26041.53604394  .00010157  00000+0  19516-3 0  9995
2 25544  51.6312 206.5863 0011092  84.3744 275.8509 15.48525084552126
CZ-4B R/B               
1 25732U 99025C   26041.58622588  .00000047  00000+0  43557-4 0  9999
2 25732  98.6681  86.5028 0038037  63.7845  55.6422 14.18259823384329
OKEAN-O                 
1 25860U 99039A   26041.14102893  .00000780  00000+0  10927-3 0  9998
2 25860  97.9505 101.3042 0001861  85.0338 275.1086 14.80289937430313
SL-16 R/B               
1 25861U 99039B   26041.14693209  .00000643  00000+0  88471-4 0  9993
2 25861  98.0027 100.2759 0014516 352.1940   7.9044 14.81692021432787
DELTA 2 R/B             
1 25876U 99041E   26041.32781106  .00002169  00000+0  38633-3 0  9995
2 25876  51.7655  50.5470 0502279 267.5979  86.7383 14.11727680359166
HELIOS 1B               
1 25977U 99064A   26041.20384888  .00002161  00000+0  24429-3 0  9995
2 25977  98.1721 302.6360 0002109 114.1883 245.9553 14.87583285681175
TERRA                   
1 25994U 99068A   26041.61115304  .00000482  00000+0  10736-3 0  9998
2 25994  97.9653  96.0723 0000945 258.2564 251.4817 14.60984820391123
SL-16 R/B               
1 26070U 00006B   26041.52902094 -.00000168  00000+0 -61252-4 0  9991
2 26070  71.0031 154.9456 0018321 228.5551 131.3999 14.15820381344713
TITAN 4B R/B            
1 26474U 00047B   26041.52844481  .00003309  00000+0  21205-3 0  9990
2 26474  67.9891 116.8741 0037046  68.7282 291.7816 15.09333301388816
ENVISAT                 
1 27386U 02009A   26041.50453292  .00000151  00000+0  62908-4 0  9995
2 27386  98.3681 355.7573 0001327  89.6348  22.1463 14.39026608255266
